[
    {
        "Altitude(m)": 607886.6645140087,
        "Argument of Periapsis(deg)": 0.0,
        "Eccentricity": 0.0,
        "Inclination(deg)": 60.0,
        "Latitude(deg)": 40.99837069820131,
        "Longitude(deg)": -80.02705933953335,
        "Mean Anomaly(deg)": -310.9091,
        "RAAN(deg)": 350.0,
        "Satellite Name": "Test1 1543",
        "Satellite Number": 1543,
        "Semi-Major Axis(m)": 6980739.136638005,
        "Time(s)": 0
    },
    {
        "Altitude(m)": 607987.5786448299,
        "Argument of Periapsis(deg)": 0.00010418945913296404,
        "Eccentricity": 0.0,
        "Inclination(deg)": 60.0,
        "Latitude(deg)": 41.463461180807414,
        "Longitude(deg)": -79.52283267173515,
        "Mean Anomaly(deg)": -310.2889938545382,
        "RAAN(deg)": 349.99957995086027,
        "Satellite Name": "Test1 1543",
        "Satellite Number": 1543,
        "Semi-Major Axis(m)": 6980739.136638005,
        "Time(s)": 10
    }
]